NORAD_CAT_ID,OBJECT_NAME,OBJECT_TYPE,EPOCH,MEAN_MOTION,ECCENTRICITY,INCLINATION,RA_OF_ASC_NODE,ARG_OF_PERICENTER,MEAN_ANOMALY,BSTAR,MEAN_MOTION_DOT,MEAN_MOTION_DDOT,TLE_LINE0,TLE_LINE1,TLE_LINE2,SEMIMAJOR_AXIS,PERIOD,APOGEE,PERIGEE,DECAYED
55927.0,STARLINK-5919,PAYLOAD,2024-01-09 14:41:08,14.98333832,0.0002931,70.0004,136.4238,267.9849,92.0975,4.0568e-05,3.91e-06,0.0,0 STARLINK-5919,1 55927U 23037P   24009.61190438  .00000391  00000-0  40568-4 0  9990,2 55927  70.0004 136.4238 0002931 267.9849  92.0975 14.98333832 45148,6950.181,96.107,574.083,570.009,0.0
55927.0,STARLINK-5919,PAYLOAD,2024-01-09 17:53:24,14.98336288,0.0002896,70.0005,136.0873,267.4609,92.6218,6.896e-05,7.3e-06,0.0,0 STARLINK-5919,1 55927U 23037P   24009.74542164  .00000730  00000-0  68960-4 0  9994,2 55927  70.0005 136.0873 0002896 267.4609  92.6218 14.98336288 45165,6950.173,96.107,574.051,570.026,0.0
55927.0,STARLINK-5919,PAYLOAD,2024-01-10 11:30:53,14.9832593,0.0002795,70.0007,134.2358,263.8631,96.2209,4.5717e-05,4.53e-06,0.0,0 STARLINK-5919,1 55927U 23037P   24010.47978853  .00000453  00000-0  45717-4 0  9991,2 55927  70.0007 134.2358 0002795 263.8631  96.2209 14.98325930 45610,6950.205,96.107,574.013,570.128,0.0
55927.0,STARLINK-5919,PAYLOAD,2024-01-11 11:32:54,14.98337356,0.0002742,70.0009,131.7116,263.4572,96.6275,3.3471e-05,3.07e-06,0.0,0 STARLINK-5919,1 55927U 23037P   24011.48118056  .00000307  00000-0  33471-4 0  9996,2 55927  70.0009 131.7116 0002742 263.4572  96.6275 14.98337356 45766,6950.17,96.107,573.941,570.129,0.0
55927.0,STARLINK-5919,PAYLOAD,2024-01-11 14:45:10,14.98337343,0.000274,70.0009,131.375,263.4336,96.6511,3.4e-05,3.13e-06,0.0,0 STARLINK-5919,1 55927U 23037P   24011.61470008  .00000313  00000-0  34000-4 0  9995,2 55927  70.0009 131.3750 0002740 263.4336  96.6511 14.98337343 45446,6950.17,96.107,573.94,570.131,0.0
55927.0,STARLINK-5919,PAYLOAD,2024-01-11 17:57:26,14.98338974,0.0002732,70.001,131.0387,263.7549,96.3299,5.1174e-05,5.18e-06,0.0,0 STARLINK-5919,1 55927U 23037P   24011.74821798  .00000518  00000-0  51174-4 0  9993,2 55927  70.0010 131.0387 0002732 263.7549  96.3299 14.98338974 45464,6950.165,96.106,573.929,570.131,0.0
55927.0,STARLINK-5919,PAYLOAD,2024-01-12 11:34:55,14.98322938,0.0002627,70.0014,129.1886,254.6016,105.4853,-4.1173e-05,-5.84e-06,0.0,0 STARLINK-5919,1 55927U 23037P   24012.48259056 -.00000584  00000-0 -41173-4 0  9990,2 55927  70.0014 129.1886 0002627 254.6016 105.4853 14.98322938 45912,6950.215,96.107,573.906,570.254,0.0
55927.0,STARLINK-5919,PAYLOAD,2024-01-12 13:11:03,14.98322503,0.0002633,70.0014,129.0202,254.3652,105.7217,-4.5734e-05,-6.38e-06,0.0,0 STARLINK-5919,1 55927U 23037P   24012.54935121 -.00000638  00000-0 -45734-4 0  9998,2 55927  70.0014 129.0202 0002633 254.3652 105.7217 14.98322503 45581,6950.216,96.107,573.911,570.251,0.0
55927.0,STARLINK-5919,PAYLOAD,2024-01-12 16:23:20,14.98324131,0.0002539,70.0014,128.6834,257.4494,102.6381,-3.6028e-05,-5.23e-06,0.0,0 STARLINK-5919,1 55927U 23037P   24012.68287058 -.00000523  00000-0 -36028-4 0  9991,2 55927  70.0014 128.6834 0002539 257.4494 102.6381 14.98324131 45600,6950.211,96.107,573.841,570.311,0.0
55927.0,STARLINK-5919,PAYLOAD,2024-01-13 11:36:56,14.98329595,0.0002502,70.0018,126.6652,246.0653,114.0244,-3.2146e-05,-4.76e-06,0.0,0 STARLINK-5919,1 55927U 23037P   24013.48398765 -.00000476  00000-0 -32146-4 0  9992,2 55927  70.0018 126.6652 0002502 246.0653 114.0244 14.98329595 46066,6950.194,96.107,573.798,570.32,0.0
55927.0,STARLINK-5919,PAYLOAD,2024-01-13 14:49:12,14.98329561,0.0002729,70.0007,126.3268,257.2253,102.8601,-3.1249e-05,-4.66e-06,0.0,0 STARLINK-5919,1 55927U 23037P   24013.61750818 -.00000466  00000-0 -31249-4 0  9990,2 55927  70.0007 126.3268 0002729 257.2253 102.8601 14.98329561 45744,6950.194,96.107,573.956,570.163,0.0
55927.0,STARLINK-5919,PAYLOAD,2024-01-13 16:25:20,14.9834139,0.0002538,70.0014,126.1603,236.5866,123.5051,-0.00022689,-2.8e-05,0.0,0 STARLINK-5919,1 55927U 23037P   24013.68426476 -.00002800  00000-0 -22689-3 0  9998,2 55927  70.0014 126.1603 0002538 236.5866 123.5051 14.98341390 46093,6950.158,96.106,573.787,570.259,0.0
55927.0,STARLINK-5919,PAYLOAD,2024-01-14 14:51:12,14.98335942,0.0002675,70.0008,123.8019,253.7403,106.3462,0.00016746,1.906e-05,0.0,0 STARLINK-5919,1 55927U 23037P   24014.61889820  .00001906  00000-0  16746-3 0  9999,2 55927  70.0008 123.8019 0002675 253.7403 106.3462 14.98335942 45899,6950.175,96.107,573.899,570.18,0.0
55927.0,STARLINK-5919,PAYLOAD,2024-01-14 16:27:20,14.98336988,0.0002666,70.0009,123.6338,253.4095,106.6771,0.00017658,2.015e-05,0.0,0 STARLINK-5919,1 55927U 23037P   24014.68565712  .00002015  00000-0  17658-3 0  9992,2 55927  70.0009 123.6338 0002666 253.4095 106.6771 14.98336988 46243,6950.171,96.107,573.889,570.183,0.0
55927.0,STARLINK-5919,PAYLOAD,2024-01-15 11:40:57,14.98332732,0.0002589,70.0013,121.6142,250.1845,109.9035,7.4128e-05,7.92e-06,0.0,0 STARLINK-5919,1 55927U 23037P   24015.48678051  .00000792  00000-0  74128-4 0  9998,2 55927  70.0013 121.6142 0002589 250.1845 109.9035 14.98332732 46365,6950.184,96.107,573.849,570.25,0.0
55927.0,STARLINK-5919,PAYLOAD,2024-01-15 14:53:14,14.98331977,0.0002597,70.0014,121.2779,252.5161,107.5715,5.8795e-05,6.09e-06,0.0,0 STARLINK-5919,1 55927U 23037P   24015.62030119  .00000609  00000-0  58795-4 0  9990,2 55927  70.0014 121.2779 0002597 252.5161 107.5715 14.98331977 46048,6950.187,96.107,573.857,570.247,0.0
55927.0,STARLINK-5919,PAYLOAD,2024-01-15 16:29:22,14.98332666,0.0002596,70.0014,121.1097,253.0035,107.084,6.3973e-05,6.71e-06,0.0,0 STARLINK-5919,1 55927U 23037P   24015.68706050  .00000671  00000-0  63973-4 0  9993,2 55927  70.0014 121.1097 0002596 253.0035 107.0840 14.98332666 46056,6950.185,96.107,573.854,570.245,0.0
55927.0,STARLINK-5919,PAYLOAD,2024-01-16 11:42:59,14.98332293,0.0002519,70.0024,119.0909,239.2314,120.8598,-0.00022182,-2.739e-05,0.0,0 STARLINK-5919,1 55927U 23037P   24016.48818827 -.00002739  00000-0 -22182-3 0  9993,2 55927  70.0024 119.0909 0002519 239.2314 120.8598 14.98332293 46516,6950.186,96.107,573.802,570.3,0.0
55927.0,STARLINK-5919,PAYLOAD,2024-01-16 13:19:07,14.98326031,0.0002514,70.0025,118.9226,239.4851,120.606,-0.00013463,-1.699e-05,0.0,0 STARLINK-5919,1 55927U 23037P   24016.55494980 -.00001699  00000-0 -13463-3 0  9997,2 55927  70.0025 118.9226 0002514 239.4851 120.6060 14.98326031 46188,6950.205,96.107,573.817,570.323,0.0
55927.0,STARLINK-5919,PAYLOAD,2024-01-16 16:31:23,14.98322894,0.0002466,70.0022,118.5852,242.6863,117.4045,-0.00011176,-1.426e-05,0.0,0 STARLINK-5919,1 55927U 23037P   24016.68847175 -.00001426  00000-0 -11176-3 0  9996,2 55927  70.0022 118.5852 0002466 242.6863 117.4045 14.98322894 46204,6950.215,96.107,573.794,570.366,0.0
55927.0,STARLINK-5919,PAYLOAD,2024-01-17 11:45:00,14.98328443,0.0002951,70.0009,116.5637,261.2986,98.7839,1.7163e-05,1.12e-06,0.0,0 STARLINK-5919,1 55927U 23037P   24017.48958520  .00000112  00000-0  17163-4 0  9994,2 55927  70.0009 116.5637 0002951 261.2986  98.7839 14.98328443 46668,6950.198,96.107,574.114,570.012,0.0
55927.0,STARLINK-5919,PAYLOAD,2024-01-17 14:57:16,14.98330837,0.0002836,70.0016,116.2288,256.3441,103.7403,5.3254e-05,5.43e-06,0.0,0 STARLINK-5919,1 55927U 23037P   24017.62310275  .00000543  00000-0  53254-4 0  9998,2 55927  70.0016 116.2288 0002836 256.3441 103.7403 14.98330837 46347,6950.19,96.107,574.026,570.084,0.0
55927.0,STARLINK-5919,PAYLOAD,2024-01-17 16:33:24,14.9833337,0.0002866,70.0011,116.0595,259.6812,100.4024,4.2208e-05,4.11e-06,0.0,0 STARLINK-5919,1 55927U 23037P   24017.68986158  .00000411  00000-0  42208-4 0  9994,2 55927  70.0011 116.0595 0002866 259.6812 100.4024 14.98333370 46351,6950.182,96.107,574.039,570.056,0.0
55927.0,STARLINK-5919,PAYLOAD,2024-01-18 11:47:00,14.98328446,0.0002831,70.0013,114.0403,254.2414,105.8433,0.00011718,1.305e-05,0.0,0 STARLINK-5919,1 55927U 23037P   24018.49098338  .00001305  00000-0  11718-3 0  9992,2 55927  70.0013 114.0403 0002831 254.2414 105.8433 14.98328446 46812,6950.198,96.107,574.03,570.095,0.0
55927.0,STARLINK-5919,PAYLOAD,2024-01-18 13:23:08,14.98330052,0.00028,70.0013,113.8719,252.9878,107.0974,0.00013601,1.53e-05,0.0,0 STARLINK-5919,1 55927U 23037P   24018.55774188  .00001530  00000-0  13601-3 0  9996,2 55927  70.0013 113.8719 0002800 252.9878 107.0974 14.98330052 46487,6950.193,96.107,574.004,570.112,0.0
55927.0,STARLINK-5919,PAYLOAD,2024-01-18 16:35:24,14.98331596,0.0002779,70.0012,113.535,255.0614,105.0238,0.00014924,1.688e-05,0.0,0 STARLINK-5919,1 55927U 23037P   24018.69126064  .00001688  00000-0  14924-3 0  9998,2 55927  70.0012 113.5350 0002779 255.0614 105.0238 14.98331596 46509,6950.188,96.107,573.984,570.121,0.0
55927.0,STARLINK-5919,PAYLOAD,2024-01-19 11:48:58,14.98371097,0.0002076,70.0043,111.5182,227.233,132.8654,0.00051281,6.037e-05,0.0,0 STARLINK-5919,1 55927U 23037P   24019.49234315  .00006037  00000-0  51281-3 0  9996,2 55927  70.0043 111.5182 0002076 227.2330 132.8654 14.98371097 46960,6950.066,96.104,573.374,570.488,0.0
55927.0,STARLINK-5919,PAYLOAD,2024-01-19 13:25:07,14.98353309,0.0002395,70.003,111.3509,246.6196,113.4711,0.00028536,3.316e-05,0.0,0 STARLINK-5919,1 55927U 23037P   24019.55911850  .00003316  00000-0  28536-3 0  9993,2 55927  70.0030 111.3509 0002395 246.6196 113.4711 14.98353309 46635,6950.121,96.106,573.65,570.321,0.0
55927.0,STARLINK-5919,PAYLOAD,2024-01-19 15:01:17,14.98328581,0.0002309,70.0019,111.1774,279.6498,80.44,1.9849e-05,1.44e-06,0.0,0 STARLINK-5919,1 55927U 23037P   24019.62590152  .00000144  00000-0  19849-4 0  9993,2 55927  70.0019 111.1774 0002309 279.6498  80.4400 14.98328581 46980,6950.197,96.107,573.667,570.457,0.0
55927.0,STARLINK-5919,PAYLOAD,2024-01-20 11:51:01,14.98339079,0.0002288,70.0048,108.9928,216.3714,143.729,0.00013181,1.481e-05,0.0,0 STARLINK-5919,1 55927U 23037P   24020.49376598  .00001481  00000-0  13181-3 0  9993,2 55927  70.0048 108.9928 0002288 216.3714 143.7290 14.98339079 47112,6950.165,96.106,573.62,570.44,0.0
